{
    "CCSDS_OMM_VERS": "3.0",
    "COMMENT": "GENERATED VIA SPACE-TRACK.ORG API",
    "CREATION_DATE": "2025-05-23T14:56:28",
    "ORIGINATOR": "18 SPCS",
    "OBJECT_NAME": "BEIDOU 3 M26",
    "OBJECT_ID": "2023-207B",
    "CENTER_NAME": "EARTH",
    "REF_FRAME": "TEME",
    "TIME_SYSTEM": "UTC",
    "MEAN_ELEMENT_THEORY": "SGP4",
    "EPOCH": "2025-05-23T06:25:42.009312",
    "MEAN_MOTION": "1.86231531",
    "ECCENTRICITY": "0.00041780",
    "INCLINATION": "55.4051",
    "RA_OF_ASC_NODE": "75.4800",
    "ARG_OF_PERICENTER": "299.1177",
    "MEAN_ANOMALY": "60.8184",
    "EPHEMERIS_TYPE": "0",
    "CLASSIFICATION_TYPE": "U",
    "NORAD_CAT_ID": "58655",
    "ELEMENT_SET_NO": "999",
    "REV_AT_EPOCH": "956",
    "BSTAR": "0.00000000000000",
    "MEAN_MOTION_DOT": "-0.00000030",
    "MEAN_MOTION_DDOT": "0.0000000000000",
    "SEMIMAJOR_AXIS": "27906.136",
    "PERIOD": "773.231",
    "APOAPSIS": "21539.660",
    "PERIAPSIS": "21516.341",
    "OBJECT_TYPE": "PAYLOAD",
    "RCS_SIZE": "LARGE",
    "COUNTRY_CODE": "PRC",
    "LAUNCH_DATE": "2023-12-26",
    "SITE": "XSC",
    "DECAY_DATE": null,
    "FILE": "4737081",
    "GP_ID": "288177902",
    "TLE_LINE0": "0 BEIDOU 3 M26",
    "TLE_LINE1": "1 58655U 23207B   25143.26784733 -.00000030  00000-0  00000+0 0  9991",
    "TLE_LINE2": "2 58655  55.4051  75.4800 0004178 299.1177  60.8184  1.86231531  9568"
}